{
  "type": "FeatureCollection",
  "features": [
    {
      "type": "Feature",
      "properties": {
        "norad_id": 44334,
        "name": "EUTELSAT 7C",
        "group": "eutelsat",
        "lat": 0.03344649226720648,
        "lon": -144.65004896183694,
        "alt_km": 35776.44110310756,
        "timestamp": "2025-12-23T07:45:09.068161+00:00",
        "meta_object_name": "EUTELSAT 7C",
        "meta_object_id": "2019-034B",
        "meta_epoch": "2025-12-22T14:54:36.897696",
        "meta_mean_motion": 1.00270406,
        "meta_eccentricity": 0.00030955,
        "meta_inclination": 0.0727,
        "meta_ra_of_asc_node": 179.9716,
        "meta_arg_of_pericenter": 75.6441,
        "meta_mean_anomaly": 66.4414,
        "meta_ephemeris_type": 0,
        "meta_classification_type": "U",
        "meta_norad_cat_id": 44334,
        "meta_element_set_no": 999,
        "meta_rev_at_epoch": 506,
        "meta_bstar": 0,
        "meta_mean_motion_dot": 7e-07,
        "meta_mean_motion_ddot": 0,
        "tle_line1": "1 44334U 19034B   25356.62126039  .00000070  00000+0  00000+0 0  9990",
        "tle_line2": "2 44334   0.0727 179.9716 0003095  75.6441  66.4414  1.00270406  5066"
      },
      "geometry": {
        "type": "Point",
        "coordinates": [
          -144.65004896183694,
          0.03344649226720648
        ]
      }
    },
    {
      "type": "Feature",
      "properties": {
        "norad_id": 44624,
        "name": "EUTELSAT 5 WEST B",
        "group": "eutelsat",
        "lat": -0.05261550046128761,
        "lon": -156.63399376234807,
        "alt_km": 35781.31929277713,
        "timestamp": "2025-12-23T07:45:09.068173+00:00",
        "meta_object_name": "EUTELSAT 5 WEST B",
        "meta_object_id": "2019-067A",
        "meta_epoch": "2025-12-22T18:16:40.050624",
        "meta_mean_motion": 1.00271362,
        "meta_eccentricity": 0.00030387,
        "meta_inclination": 0.0651,
        "meta_ra_of_asc_node": 339.4383,
        "meta_arg_of_pericenter": 291.6436,
        "meta_mean_anomaly": 89.6499,
        "meta_ephemeris_type": 0,
        "meta_classification_type": "U",
        "meta_norad_cat_id": 44624,
        "meta_element_set_no": 999,
        "meta_rev_at_epoch": 2266,
        "meta_bstar": 0,
        "meta_mean_motion_dot": -2.1e-07,
        "meta_mean_motion_ddot": 0,
        "tle_line1": "1 44624U 19067A   25356.76157466 -.00000021  00000+0  00000+0 0  9998",
        "tle_line2": "2 44624   0.0651 339.4383 0003038 291.6436  89.6499  1.00271362 22665"
      },
      "geometry": {
        "type": "Point",
        "coordinates": [
          -156.63399376234807,
          -0.05261550046128761
        ]
      }
    },
    {
      "type": "Feature",
      "properties": {
        "norad_id": 45027,
        "name": "EUTELSAT KONNECT",
        "group": "eutelsat",
        "lat": 0.049237382886686554,
        "lon": -144.41581876017108,
        "alt_km": 35783.616614455874,
        "timestamp": "2025-12-23T07:45:09.068184+00:00",
        "meta_object_name": "EUTELSAT KONNECT",
        "meta_object_id": "2020-005B",
        "meta_epoch": "2025-12-22T14:54:44.385984",
        "meta_mean_motion": 1.00271247,
        "meta_eccentricity": 0.00013494,
        "meta_inclination": 0.0714,
        "meta_ra_of_asc_node": 94.3931,
        "meta_arg_of_pericenter": 184.6433,
        "meta_mean_anomaly": 43.2748,
        "meta_ephemeris_type": 0,
        "meta_classification_type": "U",
        "meta_norad_cat_id": 45027,
        "meta_element_set_no": 999,
        "meta_rev_at_epoch": 2256,
        "meta_bstar": 0,
        "meta_mean_motion_dot": 7.1e-07,
        "meta_mean_motion_ddot": 0,
        "tle_line1": "1 45027U 20005B   25356.62134706  .00000071  00000+0  00000+0 0  9991",
        "tle_line2": "2 45027   0.0714  94.3931 0001349 184.6433  43.2748  1.00271247 22564"
      },
      "geometry": {
        "type": "Point",
        "coordinates": [
          -144.41581876017108,
          0.049237382886686554
        ]
      }
    },
    {
      "type": "Feature",
      "properties": {
        "norad_id": 49056,
        "name": "EUTELSAT QUANTUM",
        "group": "eutelsat",
        "lat": -0.03240573750580921,
        "lon": -103.90977358898893,
        "alt_km": 35772.2588696134,
        "timestamp": "2025-12-23T07:45:09.068195+00:00",
        "meta_object_name": "EUTELSAT QUANTUM",
        "meta_object_id": "2021-069B",
        "meta_epoch": "2025-12-22T20:14:21.280704",
        "meta_mean_motion": 1.00272877,
        "meta_eccentricity": 0.00034839,
        "meta_inclination": 0.0098,
        "meta_ra_of_asc_node": 3.3504,
        "meta_arg_of_pericenter": 276.9315,
        "meta_mean_anomaly": 162.6574,
        "meta_ephemeris_type": 0,
        "meta_classification_type": "U",
        "meta_norad_cat_id": 49056,
        "meta_element_set_no": 999,
        "meta_rev_at_epoch": 1616,
        "meta_bstar": 0,
        "meta_mean_motion_dot": 1.47e-06,
        "meta_mean_motion_ddot": 0,
        "tle_line1": "1 49056U 21069B   25356.84330186  .00000147  00000+0  00000+0 0  9996",
        "tle_line2": "2 49056   0.0098   3.3504 0003483 276.9315 162.6574  1.00272877 16168"
      },
      "geometry": {
        "type": "Point",
        "coordinates": [
          -103.90977358898893,
          -0.03240573750580921
        ]
      }
    },
    {
      "type": "Feature",
      "properties": {
        "norad_id": 53765,
        "name": "EUTELSAT KONNECT VHTS",
        "group": "eutelsat",
        "lat": 0.04542334889529704,
        "lon": -148.89519865032182,
        "alt_km": 35778.8393722693,
        "timestamp": "2025-12-23T07:45:09.068207+00:00",
        "meta_object_name": "EUTELSAT KONNECT VHTS",
        "meta_object_id": "2022-110A",
        "meta_epoch": "2025-12-22T14:53:22.017408",
        "meta_mean_motion": 1.00268229,
        "meta_eccentricity": 0.00023717,
        "meta_inclination": 0.0613,
        "meta_ra_of_asc_node": 98.5283,
        "meta_arg_of_pericenter": 147.5122,
        "meta_mean_anomaly": 71.4567,
        "meta_ephemeris_type": 0,
        "meta_classification_type": "U",
        "meta_norad_cat_id": 53765,
        "meta_element_set_no": 999,
        "meta_rev_at_epoch": 505,
        "meta_bstar": 0,
        "meta_mean_motion_dot": 3.8e-07,
        "meta_mean_motion_ddot": 0,
        "tle_line1": "1 53765U 22110A   25356.62039372  .00000038  00000+0  00000+0 0  9994",
        "tle_line2": "2 53765   0.0613  98.5283 0002371 147.5122  71.4567  1.00268229  5058"
      },
      "geometry": {
        "type": "Point",
        "coordinates": [
          -148.89519865032182,
          0.04542334889529704
        ]
      }
    },
    {
      "type": "Feature",
      "properties": {
        "norad_id": 54048,
        "name": "EUTELSAT HOTBIRD 13F",
        "group": "eutelsat",
        "lat": -0.05522858586107505,
        "lon": -138.62054155359058,
        "alt_km": 35793.551012553,
        "timestamp": "2025-12-23T07:45:09.068219+00:00",
        "meta_object_name": "EUTELSAT HOTBIRD 13F",
        "meta_object_id": "2022-134A",
        "meta_epoch": "2025-12-21T21:49:07.084128",
        "meta_mean_motion": 1.00271763,
        "meta_eccentricity": 0.00022808,
        "meta_inclination": 0.0525,
        "meta_ra_of_asc_node": 292.4073,
        "meta_arg_of_pericenter": 71.4737,
        "meta_mean_anomaly": 67.1177,
        "meta_ephemeris_type": 0,
        "meta_classification_type": "U",
        "meta_norad_cat_id": 54048,
        "meta_element_set_no": 999,
        "meta_rev_at_epoch": 1160,
        "meta_bstar": 0,
        "meta_mean_motion_dot": 1.09e-06,
        "meta_mean_motion_ddot": 0,
        "tle_line1": "1 54048U 22134A   25355.90910977  .00000109  00000+0  00000+0 0  9993",
        "tle_line2": "2 54048   0.0525 292.4073 0002280  71.4737  67.1177  1.00271763 11607"
      },
      "geometry": {
        "type": "Point",
        "coordinates": [
          -138.62054155359058,
          -0.05522858586107505
        ]
      }
    },
    {
      "type": "Feature",
      "properties": {
        "norad_id": 54225,
        "name": "EUTELSAT HOTBIRD 13G",
        "group": "eutelsat",
        "lat": -0.02686539981909817,
        "lon": -138.54512769560853,
        "alt_km": 35779.040504524906,
        "timestamp": "2025-12-23T07:45:09.068230+00:00",
        "meta_object_name": "EUTELSAT HOTBIRD 13G",
        "meta_object_id": "2022-146A",
        "meta_epoch": "2025-12-22T04:02:38.705856",
        "meta_mean_motion": 1.00287196,
        "meta_eccentricity": 6.245e-05,
        "meta_inclination": 0.0535,
        "meta_ra_of_asc_node": 228.1743,
        "meta_arg_of_pericenter": 347.6873,
        "meta_mean_anomaly": 308.7697,
        "meta_ephemeris_type": 0,
        "meta_classification_type": "U",
        "meta_norad_cat_id": 54225,
        "meta_element_set_no": 999,
        "meta_rev_at_epoch": 569,
        "meta_bstar": 0,
        "meta_mean_motion_dot": 1.11e-06,
        "meta_mean_motion_ddot": 0,
        "tle_line1": "1 54225U 22146A   25356.16850354  .00000111  00000+0  00000+0 0  9997",
        "tle_line2": "2 54225   0.0535 228.1743 0000624 347.6873 308.7697  1.00287196  5694"
      },
      "geometry": {
        "type": "Point",
        "coordinates": [
          -138.54512769560853,
          -0.02686539981909817
        ]
      }
    }
  ]
}